CCSDS_OMM_VERS = 2.0
CREATION_DATE  = 
ORIGINATOR     = 

OBJECT_NAME    = STARLINK-36289
OBJECT_ID      = 2026-033G
CENTER_NAME    = EARTH
REF_FRAME      = TEME
TIME_SYSTEM    = UTC
MEAN_ELEMENT_THEORY = SGP/SGP4

EPOCH          = 2026-03-16T20:00:01.999008
MEAN_MOTION    = 15.55717286
ECCENTRICITY   = .0001612
INCLINATION    = 43.0001
RA_OF_ASC_NODE = 228.4221
ARG_OF_PERICENTER = 284.7783
MEAN_ANOMALY   = 192.4267

EPHEMERIS_TYPE = 0
CLASSIFICATION_TYPE = U
NORAD_CAT_ID   = 67827
ELEMENT_SET_NO = 999
REV_AT_EPOCH   = 581
BSTAR          = -.29511E-1
MEAN_MOTION_DOT = -.1848047E-1
MEAN_MOTION_DDOT = 0

CCSDS_OMM_VERS = 2.0
CREATION_DATE  = 
ORIGINATOR     = 

OBJECT_NAME    = STARLINK-36670
OBJECT_ID      = 2026-033H
CENTER_NAME    = EARTH
REF_FRAME      = TEME
TIME_SYSTEM    = UTC
MEAN_ELEMENT_THEORY = SGP/SGP4

EPOCH          = 2026-03-16T20:00:01.999008
MEAN_MOTION    = 15.57592846
ECCENTRICITY   = .0001354
INCLINATION    = 42.9998
RA_OF_ASC_NODE = 228.3095
ARG_OF_PERICENTER = 284.0559
MEAN_ANOMALY   = 238.3525

EPHEMERIS_TYPE = 0
CLASSIFICATION_TYPE = U
NORAD_CAT_ID   = 67828
ELEMENT_SET_NO = 999
REV_AT_EPOCH   = 581
BSTAR          = -.27523E-1
MEAN_MOTION_DOT = -.1849433E-1
MEAN_MOTION_DDOT = 0

CCSDS_OMM_VERS = 2.0
CREATION_DATE  = 
ORIGINATOR     = 

OBJECT_NAME    = STARLINK-36144
OBJECT_ID      = 2026-033J
CENTER_NAME    = EARTH
REF_FRAME      = TEME
TIME_SYSTEM    = UTC
MEAN_ELEMENT_THEORY = SGP/SGP4

EPOCH          = 2026-03-16T20:00:01.999008
MEAN_MOTION    = 15.56474637
ECCENTRICITY   = .0001496
INCLINATION    = 42.9998
RA_OF_ASC_NODE = 228.3582
ARG_OF_PERICENTER = 288.2487
MEAN_ANOMALY   = 214.4117

EPHEMERIS_TYPE = 0
CLASSIFICATION_TYPE = U
NORAD_CAT_ID   = 67829
ELEMENT_SET_NO = 999
REV_AT_EPOCH   = 581
BSTAR          = -.28675E-1
MEAN_MOTION_DOT = -.1847461E-1
MEAN_MOTION_DDOT = 0

CCSDS_OMM_VERS = 2.0
CREATION_DATE  = 
ORIGINATOR     = 

OBJECT_NAME    = STARLINK-36611
OBJECT_ID      = 2026-033K
CENTER_NAME    = EARTH
REF_FRAME      = TEME
TIME_SYSTEM    = UTC
MEAN_ELEMENT_THEORY = SGP/SGP4

EPOCH          = 2026-03-16T20:00:01.999008
MEAN_MOTION    = 15.58640406
ECCENTRICITY   = .0001331
INCLINATION    = 43.0003
RA_OF_ASC_NODE = 228.2347
ARG_OF_PERICENTER = 284.9140
MEAN_ANOMALY   = 267.5046

EPHEMERIS_TYPE = 0
CLASSIFICATION_TYPE = U
NORAD_CAT_ID   = 67830
ELEMENT_SET_NO = 999
REV_AT_EPOCH   = 581
BSTAR          = -.26531E-1
MEAN_MOTION_DOT = -.1854682E-1
MEAN_MOTION_DDOT = 0

CCSDS_OMM_VERS = 2.0
CREATION_DATE  = 
ORIGINATOR     = 

OBJECT_NAME    = STARLINK-36661
OBJECT_ID      = 2026-033L
CENTER_NAME    = EARTH
REF_FRAME      = TEME
TIME_SYSTEM    = UTC
MEAN_ELEMENT_THEORY = SGP/SGP4

EPOCH          = 2026-03-16T20:00:01.999008
MEAN_MOTION    = 15.53039711
ECCENTRICITY   = .0001625
INCLINATION    = 43.0002
RA_OF_ASC_NODE = 228.5319
ARG_OF_PERICENTER = 281.6950
MEAN_ANOMALY   = 150.9579

EPHEMERIS_TYPE = 0
CLASSIFICATION_TYPE = U
NORAD_CAT_ID   = 67831
ELEMENT_SET_NO = 999
REV_AT_EPOCH   = 581
BSTAR          = -.27638E-1
MEAN_MOTION_DOT = -.1595194E-1
MEAN_MOTION_DDOT = 0

CCSDS_OMM_VERS = 2.0
CREATION_DATE  = 
ORIGINATOR     = 

OBJECT_NAME    = STARLINK-36662
OBJECT_ID      = 2026-033M
CENTER_NAME    = EARTH
REF_FRAME      = TEME
TIME_SYSTEM    = UTC
MEAN_ELEMENT_THEORY = SGP/SGP4

EPOCH          = 2026-03-16T20:00:01.999008
MEAN_MOTION    = 15.80702245
ECCENTRICITY   = .0001585
INCLINATION    = 42.9996
RA_OF_ASC_NODE = 226.6122
ARG_OF_PERICENTER = 288.4631
MEAN_ANOMALY   = 189.9084

EPHEMERIS_TYPE = 0
CLASSIFICATION_TYPE = U
NORAD_CAT_ID   = 67832
ELEMENT_SET_NO = 999
REV_AT_EPOCH   = 581
BSTAR          = -.67743E-2
MEAN_MOTION_DOT = -.119361E-1
MEAN_MOTION_DDOT = 0

CCSDS_OMM_VERS = 2.0
CREATION_DATE  = 
ORIGINATOR     = 

OBJECT_NAME    = STARLINK-36659
OBJECT_ID      = 2026-033N
CENTER_NAME    = EARTH
REF_FRAME      = TEME
TIME_SYSTEM    = UTC
MEAN_ELEMENT_THEORY = SGP/SGP4

EPOCH          = 2026-03-16T18:43:57.861984
MEAN_MOTION    = 15.64929671
ECCENTRICITY   = .0003264
INCLINATION    = 42.9990
RA_OF_ASC_NODE = 228.2847
ARG_OF_PERICENTER = 322.8861
MEAN_ANOMALY   = 37.1779

EPHEMERIS_TYPE = 0
CLASSIFICATION_TYPE = U
NORAD_CAT_ID   = 67833
ELEMENT_SET_NO = 999
REV_AT_EPOCH   = 574
BSTAR          = -.52877E-2
MEAN_MOTION_DOT = -.501826E-2
MEAN_MOTION_DDOT = 0

CCSDS_OMM_VERS = 2.0
CREATION_DATE  = 
ORIGINATOR     = 

OBJECT_NAME    = STARLINK-36655
OBJECT_ID      = 2026-033P
CENTER_NAME    = EARTH
REF_FRAME      = TEME
TIME_SYSTEM    = UTC
MEAN_ELEMENT_THEORY = SGP/SGP4

EPOCH          = 2026-03-16T20:00:01.999008
MEAN_MOTION    = 15.58652636
ECCENTRICITY   = .0001307
INCLINATION    = 43.0001
RA_OF_ASC_NODE = 228.2026
ARG_OF_PERICENTER = 279.0114
MEAN_ANOMALY   = 286.5103

EPHEMERIS_TYPE = 0
CLASSIFICATION_TYPE = U
NORAD_CAT_ID   = 67834
ELEMENT_SET_NO = 999
REV_AT_EPOCH   = 581
BSTAR          = -.26461E-1
MEAN_MOTION_DOT = -.1851097E-1
MEAN_MOTION_DDOT = 0

CCSDS_OMM_VERS = 2.0
CREATION_DATE  = 
ORIGINATOR     = 

OBJECT_NAME    = STARLINK-36657
OBJECT_ID      = 2026-033Q
CENTER_NAME    = EARTH
REF_FRAME      = TEME
TIME_SYSTEM    = UTC
MEAN_ELEMENT_THEORY = SGP/SGP4

EPOCH          = 2026-03-16T20:00:01.999008
MEAN_MOTION    = 15.62764963
ECCENTRICITY   = .0001461
INCLINATION    = 42.9995
RA_OF_ASC_NODE = 228.0035
ARG_OF_PERICENTER = 275.7850
MEAN_ANOMALY   = 9.1805

EPHEMERIS_TYPE = 0
CLASSIFICATION_TYPE = U
NORAD_CAT_ID   = 67835
ELEMENT_SET_NO = 999
REV_AT_EPOCH   = 581
BSTAR          = -.22895E-1
MEAN_MOTION_DOT = -.1876477E-1
MEAN_MOTION_DDOT = 0

CCSDS_OMM_VERS = 2.0
CREATION_DATE  = 
ORIGINATOR     = 

OBJECT_NAME    = STARLINK-36650
OBJECT_ID      = 2026-033R
CENTER_NAME    = EARTH
REF_FRAME      = TEME
TIME_SYSTEM    = UTC
MEAN_ELEMENT_THEORY = SGP/SGP4

EPOCH          = 2026-03-16T20:00:01.999008
MEAN_MOTION    = 15.54310389
ECCENTRICITY   = .0001556
INCLINATION    = 43.0001
RA_OF_ASC_NODE = 228.4167
ARG_OF_PERICENTER = 284.4802
MEAN_ANOMALY   = 194.3218

EPHEMERIS_TYPE = 0
CLASSIFICATION_TYPE = U
NORAD_CAT_ID   = 67836
ELEMENT_SET_NO = 999
REV_AT_EPOCH   = 581
BSTAR          = -.31004E-1
MEAN_MOTION_DOT = -.1843142E-1
MEAN_MOTION_DDOT = 0

CCSDS_OMM_VERS = 2.0
CREATION_DATE  = 
ORIGINATOR     = 

OBJECT_NAME    = STARLINK-36649
OBJECT_ID      = 2026-033S
CENTER_NAME    = EARTH
REF_FRAME      = TEME
TIME_SYSTEM    = UTC
MEAN_ELEMENT_THEORY = SGP/SGP4

EPOCH          = 2026-03-16T20:00:01.999008
MEAN_MOTION    = 15.58227660
ECCENTRICITY   = .000125
INCLINATION    = 42.9999
RA_OF_ASC_NODE = 228.1909
ARG_OF_PERICENTER = 278.8566
MEAN_ANOMALY   = 290.8577

EPHEMERIS_TYPE = 0
CLASSIFICATION_TYPE = U
NORAD_CAT_ID   = 67837
ELEMENT_SET_NO = 999
REV_AT_EPOCH   = 581
BSTAR          = -.26936E-1
MEAN_MOTION_DOT = -.185361E-1
MEAN_MOTION_DDOT = 0

CCSDS_OMM_VERS = 2.0
CREATION_DATE  = 
ORIGINATOR     = 

OBJECT_NAME    = STARLINK-36654
OBJECT_ID      = 2026-033T
CENTER_NAME    = EARTH
REF_FRAME      = TEME
TIME_SYSTEM    = UTC
MEAN_ELEMENT_THEORY = SGP/SGP4

EPOCH          = 2026-03-16T20:00:01.999008
MEAN_MOTION    = 15.56216324
ECCENTRICITY   = .0001352
INCLINATION    = 42.9997
RA_OF_ASC_NODE = 228.2861
ARG_OF_PERICENTER = 283.5580
MEAN_ANOMALY   = 247.5330

EPHEMERIS_TYPE = 0
CLASSIFICATION_TYPE = U
NORAD_CAT_ID   = 67838
ELEMENT_SET_NO = 999
REV_AT_EPOCH   = 581
BSTAR          = -.29024E-1
MEAN_MOTION_DOT = -.1851258E-1
MEAN_MOTION_DDOT = 0

CCSDS_OMM_VERS = 2.0
CREATION_DATE  = 
ORIGINATOR     = 

OBJECT_NAME    = STARLINK-36652
OBJECT_ID      = 2026-033U
CENTER_NAME    = EARTH
REF_FRAME      = TEME
TIME_SYSTEM    = UTC
MEAN_ELEMENT_THEORY = SGP/SGP4

EPOCH          = 2026-03-16T20:00:01.999008
MEAN_MOTION    = 15.54507090
ECCENTRICITY   = .00015
INCLINATION    = 43.0001
RA_OF_ASC_NODE = 228.3730
ARG_OF_PERICENTER = 285.4728
MEAN_ANOMALY   = 210.7893

EPHEMERIS_TYPE = 0
CLASSIFICATION_TYPE = U
NORAD_CAT_ID   = 67839
ELEMENT_SET_NO = 999
REV_AT_EPOCH   = 581
BSTAR          = -.30803E-1
MEAN_MOTION_DOT = -.1844411E-1
MEAN_MOTION_DDOT = 0

CCSDS_OMM_VERS = 2.0
CREATION_DATE  = 
ORIGINATOR     = 

OBJECT_NAME    = STARLINK-36651
OBJECT_ID      = 2026-033V
CENTER_NAME    = EARTH
REF_FRAME      = TEME
TIME_SYSTEM    = UTC
MEAN_ELEMENT_THEORY = SGP/SGP4

EPOCH          = 2026-03-16T20:00:01.999008
MEAN_MOTION    = 15.56037855
ECCENTRICITY   = .0001333
INCLINATION    = 42.9998
RA_OF_ASC_NODE = 228.2740
ARG_OF_PERICENTER = 283.8155
MEAN_ANOMALY   = 251.8495

EPHEMERIS_TYPE = 0
CLASSIFICATION_TYPE = U
NORAD_CAT_ID   = 67840
ELEMENT_SET_NO = 999
REV_AT_EPOCH   = 581
BSTAR          = -.29223E-1
MEAN_MOTION_DOT = -.1851462E-1
MEAN_MOTION_DDOT = 0

CCSDS_OMM_VERS = 2.0
CREATION_DATE  = 
ORIGINATOR     = 

OBJECT_NAME    = STARLINK-36656
OBJECT_ID      = 2026-033W
CENTER_NAME    = EARTH
REF_FRAME      = TEME
TIME_SYSTEM    = UTC
MEAN_ELEMENT_THEORY = SGP/SGP4

EPOCH          = 2026-03-16T20:00:01.999008
MEAN_MOTION    = 15.57137177
ECCENTRICITY   = .0001287
INCLINATION    = 42.9997
RA_OF_ASC_NODE = 228.2046
ARG_OF_PERICENTER = 283.9226
MEAN_ANOMALY   = 280.0718

EPHEMERIS_TYPE = 0
CLASSIFICATION_TYPE = U
NORAD_CAT_ID   = 67841
ELEMENT_SET_NO = 999
REV_AT_EPOCH   = 581
BSTAR          = -.28044E-1
MEAN_MOTION_DOT = -.1851833E-1
MEAN_MOTION_DDOT = 0

